IXPE                    
1 49954U 21121A   24291.91667824  .00009916  00000+0  69484-3 0  9997
2 49954   0.2284 201.1513 0009092 306.8260 134.9409 15.00744199  5800
